{
  "norad_id": 56393,
  "name": "STARLINK-6303",
  "history": [
    {
      "epoch": "2026-03-28T17:23:02.337504Z",
      "apogee_km": 486.51497297806236,
      "perigee_km": 484.60110025405265,
      "latitude_deg": 2.5512188916502747e-05,
      "longitude_deg": 3.2474169479998816,
      "height_km": 485.30895630176406,
      "semi_major_axis_km": 6863.695036616057,
      "eccentricity": 0.00013942,
      "inclination_deg": 43.0033,
      "raan_deg": 90.1478,
      "arg_perigee_deg": 271.5706,
      "mean_anomaly_deg": 88.4986,
      "mean_motion_rev_day": 15.26742494
    },
    {
      "epoch": "2026-03-29T01:14:04.860960Z",
      "apogee_km": 486.48290917707436,
      "perigee_km": 484.63657475348555,
      "latitude_deg": 3.624061890995331e-05,
      "longitude_deg": -116.6803029247798,
      "height_km": 485.2815494915441,
      "semi_major_axis_km": 6863.69674196528,
      "eccentricity": 0.0001345,
      "inclination_deg": 43.003,
      "raan_deg": 88.303,
      "arg_perigee_deg": 273.4322,
      "mean_anomaly_deg": 86.6376,
      "mean_motion_rev_day": 15.26741925
    },
    {
      "epoch": "2026-03-30T00:47:12.100416Z",
      "apogee_km": 486.5166635128726,
      "perigee_km": 484.59469228920807,
      "latitude_deg": 3.1304947906100384e-05,
      "longitude_deg": -116.46161878708115,
      "height_km": 485.2438103945877,
      "semi_major_axis_km": 6863.69267790104,
      "eccentricity": 0.00014001,
      "inclination_deg": 43.0018,
      "raan_deg": 82.7691,
      "arg_perigee_deg": 275.3054,
      "mean_anomaly_deg": 84.7638,
      "mean_motion_rev_day": 15.26743281
    },
    {
      "epoch": "2026-03-30T16:29:16.895040Z",
      "apogee_km": 486.41409377642594,
      "perigee_km": 484.68677819628647,
      "latitude_deg": 2.0552318782276386e-05,
      "longitude_deg": 3.682762116412098,
      "height_km": 485.25003297750015,
      "semi_major_axis_km": 6863.687435986356,
      "eccentricity": 0.00012583,
      "inclination_deg": 43.0026,
      "raan_deg": 79.0783,
      "arg_perigee_deg": 275.1392,
      "mean_anomaly_deg": 84.9316,
      "mean_motion_rev_day": 15.2674503
    },
    {
      "epoch": "2026-03-31T16:02:23.954784Z",
      "apogee_km": 486.4462912390627,
      "perigee_km": 484.65898645710604,
      "latitude_deg": -1.2777247057036658e-05,
      "longitude_deg": 3.8989676048946813,
      "height_km": 485.3551439901348,
      "semi_major_axis_km": 6863.689638848084,
      "eccentricity": 0.0001302,
      "inclination_deg": 43.0021,
      "raan_deg": 73.5412,
      "arg_perigee_deg": 268.3603,
      "mean_anomaly_deg": 91.7099,
      "mean_motion_rev_day": 15.26744295
    },
    {
      "epoch": "2026-04-01T15:35:31.623648Z",
      "apogee_km": 486.59880486059046,
      "perigee_km": 484.54243805720216,
      "latitude_deg": 2.14431295504722e-05,
      "longitude_deg": 4.116500142511573,
      "height_km": 485.34115096531025,
      "semi_major_axis_km": 6863.707621458896,
      "eccentricity": 0.0001498,
      "inclination_deg": 43.0038,
      "raan_deg": 68.0079,
      "arg_perigee_deg": 270.3766,
      "mean_anomaly_deg": 89.6914,
      "mean_motion_rev_day": 15.26738295
    },
    {
      "epoch": "2026-04-02T15:08:38.243616Z",
      "apogee_km": 486.65950678341324,
      "perigee_km": 484.493730588174,
      "latitude_deg": 6.01763428643875e-05,
      "longitude_deg": 4.33561946452883,
      "height_km": 485.4395090231966,
      "semi_major_axis_km": 6863.713618685793,
      "eccentricity": 0.00015777,
      "inclination_deg": 43.0031,
      "raan_deg": 62.4718,
      "arg_perigee_deg": 265.4642,
      "mean_anomaly_deg": 94.603,
      "mean_motion_rev_day": 15.26736294
    },
    {
      "epoch": "2026-04-03T14:41:45.303360Z",
      "apogee_km": 486.5106799984851,
      "perigee_km": 484.5710046402455,
      "latitude_deg": 5.143250009725613e-05,
      "longitude_deg": 4.552550081013821,
      "height_km": 485.46206711250926,
      "semi_major_axis_km": 6863.6778423193655,
      "eccentricity": 0.0001413,
      "inclination_deg": 43.0036,
      "raan_deg": 56.9354,
      "arg_perigee_deg": 261.4572,
      "mean_anomaly_deg": 98.612,
      "mean_motion_rev_day": 15.26748231
    },
    {
      "epoch": "2026-04-04T20:31:43.510944Z",
      "apogee_km": 486.7126901796282,
      "perigee_km": 484.4572711367846,
      "latitude_deg": -9.689397738448149e-06,
      "longitude_deg": -91.17783855189909,
      "height_km": 485.5636359319515,
      "semi_major_axis_km": 6863.721980658206,
      "eccentricity": 0.0001643,
      "inclination_deg": 43.0047,
      "raan_deg": 49.9228,
      "arg_perigee_deg": 259.7227,
      "mean_anomaly_deg": 100.3439,
      "mean_motion_rev_day": 15.26733504
    },
    {
      "epoch": "2026-04-05T13:48:00.374112Z",
      "apogee_km": 486.52843420080717,
      "perigee_km": 484.5873812808986,
      "latitude_deg": 1.2099872675661037e-05,
      "longitude_deg": 4.984411137839726,
      "height_km": 485.41069239383825,
      "semi_major_axis_km": 6863.694907740853,
      "eccentricity": 0.0001414,
      "inclination_deg": 43.0041,
      "raan_deg": 45.8646,
      "arg_perigee_deg": 265.5355,
      "mean_anomaly_deg": 94.5335,
      "mean_motion_rev_day": 15.26742537
    },
    {
      "epoch": "2026-04-05T13:48:00.374976Z",
      "apogee_km": 486.5280910160627,
      "perigee_km": 484.5877244656431,
      "latitude_deg": 8.19278648541236e-06,
      "longitude_deg": 4.984403361872521,
      "height_km": 485.41066568199926,
      "semi_major_axis_km": 6863.694907740853,
      "eccentricity": 0.00014135,
      "inclination_deg": 43.0041,
      "raan_deg": 45.8646,
      "arg_perigee_deg": 265.5355,
      "mean_anomaly_deg": 94.5335,
      "mean_motion_rev_day": 15.26742537
    },
    {
      "epoch": "2026-04-06T05:30:05.171328Z",
      "apogee_km": 486.44291101972794,
      "perigee_km": 484.70186249668404,
      "latitude_deg": -1.177622715283648e-06,
      "longitude_deg": 125.1298764349653,
      "height_km": 485.3378837088668,
      "semi_major_axis_km": 6863.709386758206,
      "eccentricity": 0.00012683,
      "inclination_deg": 43.0038,
      "raan_deg": 42.1749,
      "arg_perigee_deg": 270.7637,
      "mean_anomaly_deg": 89.3069,
      "mean_motion_rev_day": 15.26737706
    },
    {
      "epoch": "2026-04-07T12:54:15.081984Z",
      "apogee_km": 486.34685865028587,
      "perigee_km": 484.7887976542943,
      "latitude_deg": -2.3486064039329868e-05,
      "longitude_deg": 5.418589521161631,
      "height_km": 485.36536373614547,
      "semi_major_axis_km": 6863.704828152289,
      "eccentricity": 0.0001135,
      "inclination_deg": 43.0045,
      "raan_deg": 34.7946,
      "arg_perigee_deg": 268.494,
      "mean_anomaly_deg": 91.5781,
      "mean_motion_rev_day": 15.26739227
    },
    {
      "epoch": "2026-04-08T12:27:22.177152Z",
      "apogee_km": 487.0514866221529,
      "perigee_km": 484.1621250296521,
      "latitude_deg": 3.11884176850205e-06,
      "longitude_deg": 5.635206656265635,
      "height_km": 485.60084029907966,
      "semi_major_axis_km": 6863.743805825902,
      "eccentricity": 0.00021048,
      "inclination_deg": 43.0075,
      "raan_deg": 29.258,
      "arg_perigee_deg": 261.4048,
      "mean_anomaly_deg": 98.6565,
      "mean_motion_rev_day": 15.26726222
    },
    {
      "epoch": "2026-04-09T12:00:29.127168Z",
      "apogee_km": 486.20791414799714,
      "perigee_km": 484.89955741994254,
      "latitude_deg": -2.946448407852043e-05,
      "longitude_deg": 5.854267154990994,
      "height_km": 485.37701181776185,
      "semi_major_axis_km": 6863.690735783969,
      "eccentricity": 9.531e-05,
      "inclination_deg": 43.0049,
      "raan_deg": 23.7233,
      "arg_perigee_deg": 265.9384,
      "mean_anomaly_deg": 94.1358,
      "mean_motion_rev_day": 15.26743929
    },
    {
      "epoch": "2026-04-10T03:42:34.129152Z",
      "apogee_km": 486.13932755325186,
      "perigee_km": 484.9829316923724,
      "latitude_deg": -1.6489328888031203e-05,
      "longitude_deg": 125.99610441773484,
      "height_km": 485.46510505400573,
      "semi_major_axis_km": 6863.698129622811,
      "eccentricity": 8.424e-05,
      "inclination_deg": 43.0067,
      "raan_deg": 20.0308,
      "arg_perigee_deg": 257.3155,
      "mean_anomaly_deg": 102.7602,
      "mean_motion_rev_day": 15.26741462
    },
    {
      "epoch": "2026-04-11T11:06:43.885152Z",
      "apogee_km": 486.43388071687605,
      "perigee_km": 484.6987365204568,
      "latitude_deg": -2.0506943200346565e-05,
      "longitude_deg": 6.28908392188164,
      "height_km": 485.43241898255405,
      "semi_major_axis_km": 6863.703308618666,
      "eccentricity": 0.0001264,
      "inclination_deg": 43.005,
      "raan_deg": 12.6541,
      "arg_perigee_deg": 264.1187,
      "mean_anomaly_deg": 95.952,
      "mean_motion_rev_day": 15.26739734
    },
    {
      "epoch": "2026-04-13T02:21:55.924416Z",
      "apogee_km": 486.2662674473959,
      "perigee_km": 484.8723859665697,
      "latitude_deg": -1.20716738114066e-05,
      "longitude_deg": 126.65035046272605,
      "height_km": 485.4797900604166,
      "semi_major_axis_km": 6863.7063267069825,
      "eccentricity": 0.00010154,
      "inclination_deg": 43.0041,
      "raan_deg": 3.4276,
      "arg_perigee_deg": 258.9496,
      "mean_anomaly_deg": 101.1241,
      "mean_motion_rev_day": 15.26738727
    },
    {
      "epoch": "2026-04-14T09:46:05.620800Z",
      "apogee_km": 486.25574800675713,
      "perigee_km": 484.8720259079455,
      "latitude_deg": 4.962281572384869e-05,
      "longitude_deg": 6.9415530012630455,
      "height_km": 485.4492939931157,
      "semi_major_axis_km": 6863.700886957351,
      "eccentricity": 0.0001008,
      "inclination_deg": 43.0029,
      "raan_deg": 356.0488,
      "arg_perigee_deg": 260.9635,
      "mean_anomaly_deg": 99.1103,
      "mean_motion_rev_day": 15.26740542
    }
  ]
}